STARLINK-35467          
1 66343U 25253AA  25334.16671295 -.02018214  00000+0 -43673-1 0  9996
2 66343  42.9999  58.1784 0001378 265.4983  34.0436 15.47064313  4902
STARLINK-35511          
1 66344U 25253AB  25334.11054463  .00151263  00000+0  25293-2 0  9991
2 66344  42.9996  58.4719 0001858 274.7450  85.3198 15.50638665  4978
STARLINK-35440          
1 66345U 25253AC  25334.11123149  .00128408  00000+0  21553-2 0  9990
2 66345  42.9995  58.4755 0002029 287.2423  72.8215 15.50625556  4974
STARLINK-35482          
1 66346U 25253AD  25334.11088671  .00127345  00000+0  21373-2 0  9990
2 66346  42.9995  58.4736 0001837 286.4982  73.5676 15.50632692  4979
STARLINK-35438          
1 66347U 25253AE  25334.11020137  .00148071  00000+0  24773-2 0  9990
2 66347  42.9995  58.4676 0001867 278.4229  81.6420 15.50636213  4971
STARLINK-35849          
1 66348U 25254A   25334.11784257  .00189800  00000+0  12683-2 0  9994
2 66348  53.1587 337.6161 0001161  62.9952 297.1187 15.74243649  4854
STARLINK-35848          
1 66349U 25254B   25334.11750359  .00157564  00000+0  10577-2 0  9993
2 66349  53.1587 337.6133 0001443 102.2618 257.8564 15.74241932  3690
STARLINK-35829          
1 66350U 25254C   25334.11716418  .00164829  00000+0  11051-2 0  9993
2 66350  53.1586 337.6108 0001193  91.0650 269.0506 15.74246936  3696
STARLINK-35828          
1 66351U 25254D   25334.11682771  .00137489  00000+0  92595-3 0  9993
2 66351  53.1586 337.6081 0001884 104.0763 256.0467 15.74235025  3693
STARLINK-35850          
1 66352U 25254E   25334.11648934  .00114750  00000+0  77609-3 0  9992
2 66352  53.1588 337.6059 0001441 115.6754 244.4415 15.74220937  3698
STARLINK-35869          
1 66353U 25254F   25334.11615104  .00175912  00000+0  11773-2 0  9992
2 66353  53.1583 337.6035 0001304 101.3015 258.8151 15.74251693  3697
STARLINK-35895          
1 66354U 25254G   25334.11547412  .00437789  00000+0  27257-2 0  9996
2 66354  53.1585 337.5969 0004229 185.0087 175.0891 15.75145055  3698
STARLINK-35861          
1 66355U 25254H   25334.11547581  .00181009  00000+0  12107-2 0  9993
2 66355  53.1584 337.5987 0001478  84.0249 276.0939 15.74248707  3691
STARLINK-35851          
1 66356U 25254J   25334.11513772  .00147888  00000+0  99442-3 0  9994
2 66356  53.1584 337.5964 0001373  97.7008 262.4168 15.74235904  3693
STARLINK-35817          
1 66357U 25254K   25334.11479865  .00170287  00000+0  11408-2 0  9993
2 66357  53.1582 337.5938 0001266  97.4419 262.6745 15.74246056  3690
STARLINK-35807          
1 66358U 25254L   25334.11446005  .00175873  00000+0  11773-2 0  9995
2 66358  53.1583 337.5910 0001343 103.9265 256.1904 15.74247286  3691
STARLINK-35805          
1 66359U 25254M   25334.11412360  .00223830  00000+0  14878-2 0  9999
2 66359  53.1580 337.5887 0001518  67.4514 292.6667 15.74259780  4837
STARLINK-35823          
1 66360U 25254N   25334.11344860  .00136348  00000+0  91872-3 0  9997
2 66360  53.1580 337.5838 0001340  80.6094 279.5077 15.74227971  3697
STARLINK-35813          
1 66361U 25254P   25334.11378576  .00123826  00000+0  83595-3 0  9999
2 66361  53.1582 337.5865 0001525  84.4618 275.6576 15.74228799  3699
STARLINK-35822          
1 66362U 25254Q   25334.11277024  .00187338  00000+0  12518-2 0  9990
2 66362  53.1580 337.5797 0001412 100.3574 259.7605 15.74252089  3691
STARLINK-35806          
1 66363U 25254R   25334.11310992  .00159186  00000+0  10684-2 0  9995
2 66363  53.1582 337.5817 0001560  98.1702 261.9495 15.74240893  3690
STARLINK-35797          
1 66364U 25254S   25334.11243317  .00194879  00000+0  13006-2 0  9991
2 66364  53.1579 337.5767 0001495  90.2186 269.9005 15.74255468  3696
STARLINK-35827          
1 66365U 25254T   25334.11175613  .00190570  00000+0  12729-2 0  9990
2 66365  53.1578 337.5729 0001438  99.9701 260.1481 15.74251103  3693
STARLINK-35845          
1 66366U 25254U   25334.11209610  .00146853  00000+0  98777-3 0  9999
2 66366  53.1579 337.5743 0001569  96.9917 263.1281 15.74232083  3699
STARLINK-35846          
1 66367U 25254V   25334.11141817  .00190099  00000+0  12695-2 0  9999
2 66367  53.1578 337.5699 0001385  97.9366 262.1811 15.74255574  3692
STARLINK-34861          
1 66368U 25254W   25334.11074212  .00133278  00000+0  89846-3 0  9993
2 66368  53.1575 337.5641 0001332 103.4362 256.6807 15.74227987  3698
STARLINK-35795          
1 66369U 25254X   25334.11108075  .00176176  00000+0  11790-2 0  9995
2 66369  53.1574 337.5666 0001601  88.3793 271.7410 15.74251273  3696
STARLINK-35824          
1 66370U 25254Y   25334.11040455  .00191551  00000+0  12792-2 0  9991
2 66370  53.1576 337.5624 0001688 113.7986 246.3210 15.74251603  3699
STARLINK-35804          
1 66371U 25254Z   25334.10972867  .00179383  00000+0  12000-2 0  9993
2 66371  53.1573 337.5575 0001559  98.9863 261.1333 15.74249887  3699
STARLINK-35821          
1 66372U 25254AA  25334.11006638  .00194789  00000+0  12999-2 0  9993
2 66372  53.1574 337.5608 0001239 104.4531 255.6627 15.74257284  3692
STARLINK-35809          
1 66373U 25254AB  25334.10939150  .00069516  00000+0  47468-3 0  9996
2 66373  53.1575 337.5550 0001534  84.6358 275.4837 15.74205901  3696
STARLINK-35831          
1 66374U 25254AC  25334.10905168  .00170391  00000+0  11413-2 0  9993
2 66374  53.1572 337.5528 0001806 111.1365 248.9848 15.74249342  3699
STARLINK-35826          
1 66375U 25254AD  25334.10871441  .00186673  00000+0  12474-2 0  9998
2 66375  53.1571 337.5502 0001638  93.6119 266.5088 15.74252496  3691
SHIYAN-32 01            
1 66376U 25255A   25334.05360830  .00021849  00000+0  50936-3 0  9998
2 66376  52.9966 238.3575 0013382   2.9930 357.1152 15.42118039  3393
CZ-11 DEB               
1 66377U 25255B   25334.10906637  .00042477  00000+0  94232-3 0  9993
2 66377  52.9962 237.9909 0013993   0.9113 359.1915 15.43235290  3260
SHIYAN-32 02            
1 66378U 25255C   25334.10502221  .00061161  00000+0  13308-2 0  9990
2 66378  52.9973 237.9675 0012718   3.5215 356.5876 15.43667348  3269
SHIYAN-32 03            
1 66379U 25255D   25334.04869998  .00022252  00000+0  51189-3 0  9999
2 66379  52.9971 238.3278 0015370   3.9387 356.1736 15.42476268  3273
STARLINK-35139          
1 66380U 25257A   25334.16671295 -.02118001  00000+0 -42928-1 0  9998
2 66380  53.1592 323.9722 0001543  84.6543 153.1002 15.49309878  4416
STARLINK-35158          
1 66381U 25257B   25334.16671295 -.02131953  00000+0 -43246-1 0  9994
2 66381  53.1595 323.9682 0001695  83.2991 156.3675 15.49309144  4478
STARLINK-35639          
1 66382U 25257C   25334.16671295 -.00058553  00000+0 -10513-2 0  9999
2 66382  53.1594 323.9632 0001609  88.3483 153.2474 15.49343707  4476
STARLINK-35690          
1 66383U 25257D   25334.16671295 -.00094739  00000+0 -17144-2 0  9993
2 66383  53.1594 323.9555 0001555  83.6565 161.7869 15.49334328  4471
STARLINK-35662          
1 66384U 25257E   25334.16671295 -.00113845  00000+0 -20657-2 0  9997
2 66384  53.1595 323.9525 0001777  82.1673 165.1921 15.49348915  4474
STARLINK-35659          
1 66385U 25257F   25334.16671295 -.00060262  00000+0 -10825-2 0  9998
2 66385  53.1595 323.9601 0001551  85.2829 158.2351 15.49343248  4471
STARLINK-35651          
1 66386U 25257G   25334.16671295 -.00138752  00000+0 -25257-2 0  9994
2 66386  53.1595 323.9483 0001629  85.9461 163.3134 15.49369256  4478
STARLINK-35661          
1 66387U 25257H   25334.16671295 -.00183420  00000+0 -33558-2 0  9990
2 66387  53.1596 323.9450 0001235  83.0420 168.0983 15.49408961  4472
STARLINK-35647          
1 66388U 25257J   25334.16671295 -.00112084  00000+0 -20328-2 0  9990
2 66388  53.1596 323.9408 0001240  77.8688 175.2165 15.49356480  4479
STARLINK-35694          
1 66389U 25257K   25334.16671295 -.00092280  00000+0 -16690-2 0  9993
2 66389  53.1596 323.9355 0001702  82.1214 172.8985 15.49337941  4472
STARLINK-35665          
1 66390U 25257L   25334.16671295 -.00111101  00000+0 -20152-2 0  9997
2 66390  53.1597 323.8642 0001777  82.0925 207.4377 15.49346413  4578
STARLINK-35656          
1 66391U 25257M   25334.16671295 -.01912635  00000+0 -44886-1 0  9999
2 66391  53.1590 323.6494 0000963  92.4537 299.8291 15.44769210  4574
STARLINK-35671          
1 66392U 25257N   25334.16671295 -.00116101  00000+0 -21065-2 0  9998
2 66392  53.1597 323.9288 0001245  78.7034 180.1233 15.49363281  4479
STARLINK-35652          
1 66393U 25257P   25334.16671295 -.00125537  00000+0 -22821-2 0  9993
2 66393  53.1596 323.9322 0001747  84.2596 172.6838 15.49349448  4476
STARLINK-35672          
1 66394U 25257Q   25334.16671295 -.00087848  00000+0 -15877-2 0  9999
2 66394  53.1594 323.9237 0001694  81.8719 178.8994 15.49335270  4470
STARLINK-35681          
1 66395U 25257R   25334.16671295 -.00121785  00000+0 -22124-2 0  9992
2 66395  53.1596 323.9204 0001780  83.6834 179.0093 15.49351978  4310
STARLINK-35669          
1 66396U 25257S   25334.16671295 -.00110851  00000+0 -20107-2 0  9994
2 66396  53.1596 323.9157 0001625  84.4323 180.1737 15.49346047  4474
STARLINK-35510          
1 66397U 25257T   25334.16671295 -.00162153  00000+0 -29579-2 0  9999
2 66397  53.1595 323.9122 0001019  77.0211 189.4281 15.49408553  4474
STARLINK-35642          
1 66398U 25257U   25334.16671295 -.00083135  00000+0 -15013-2 0  9990
2 66398  53.1596 323.9077 0001670  79.9079 188.5329 15.49331786  4477
STARLINK-35657          
1 66399U 25257V   25334.16671295 -.00082495  00000+0 -14895-2 0  9996
2 66399  53.1597 323.9039 0001775  79.8675 190.4868 15.49333067  4478
STARLINK-35667          
1 66400U 25257W   25334.16671295 -.00087653  00000+0 -15840-2 0  9991
2 66400  53.1596 323.8955 0001751  80.5913 193.5966 15.49335956  4476
STARLINK-35668          
1 66401U 25257X   25334.16671295 -.00086994  00000+0 -15720-2 0  9996
2 66401  53.1595 323.8917 0001702  81.0494 195.0562 15.49335186  4474
